{"type": "FeatureCollection", "features": [ {"type": "Feature", "properties": {"norad_id": 60989, "name": "SENTINEL-2C", "group": "resource", "lat": 66.11236672332628, "lon": -89.0044008166733, "alt_km": 781.5596370730518, "timestamp": "2025-12-24T18:55:55.715119+00:00", "meta": {"OBJECT_NAME": "SENTINEL-2C", "OBJECT_ID": "2024-157A", "EPOCH": "2025-12-24T04:58:56.875872", "MEAN_MOTION": 14.30816913, "ECCENTRICITY": 0.00013743, "INCLINATION": 98.5667, "RA_OF_ASC_NODE": 70.5242, "ARG_OF_PERICENTER": 104.0123, "MEAN_ANOMALY": 256.1212, "EPHEMERIS_TYPE": 0, "CLASSIFICATION_TYPE": "U", "NORAD_CAT_ID": 60989, "ELEMENT_SET_NO": 999, "REV_AT_EPOCH": 6796, "BSTAR": 7.5136715e-05, "MEAN_MOTION_DOT": 1.53e-06, "MEAN_MOTION_DDOT": 0}, "tle": {"line1": "1 60989U 24157A   25358.20760273  .00000153  00000+0  75137-4 0  9996", "line2": "2 60989  98.5667  70.5242 0001374 104.0123 256.1212 14.30816913 67964"}}, "geometry": {"type": "Point", "coordinates": [-89.0044008166733, 66.11236672332628]}}, {"type": "Feature", "properties": {"norad_id": 61735, "name": "IONOSFERA-M 1", "group": "resource", "lat": 27.414246837947136, "lon": -136.0326060205063, "alt_km": 814.7455230794885, "timestamp": "2025-12-24T18:55:55.715130+00:00", "meta": {"OBJECT_NAME": "IONOSFERA-M 1", "OBJECT_ID": "2024-199A", "EPOCH": "2025-12-24T06:59:13.208640", "MEAN_MOTION": 14.22716497, "ECCENTRICITY": 3.914e-05, "INCLINATION": 98.7403, "RA_OF_ASC_NODE": 228.0503, "ARG_OF_PERICENTER": 6.6398, "MEAN_ANOMALY": 353.4785, "EPHEMERIS_TYPE": 0, "CLASSIFICATION_TYPE": "U", "NORAD_CAT_ID": 61735, "ELEMENT_SET_NO": 999, "REV_AT_EPOCH": 10283, "BSTAR": 4.7672595e-05, "MEAN_MOTION_DOT": 6.3e-07, "MEAN_MOTION_DDOT": 0}, "tle": {"line1": "1 61735U 24199A   25358.29112510  .00000063  00000+0  47673-4 0  9990", "line2": "2 61735  98.7403 228.0503 0000391   6.6398 353.4785 14.22716497102832"}}, "geometry": {"type": "Point", "coordinates": [-136.0326060205063, 27.414246837947136]}}, {"type": "Feature", "properties": {"norad_id": 61736, "name": "IONOSFERA-M 2", "group": "resource", "lat": -30.349930221209828, "lon": 43.2887032871772, "alt_km": 822.6836026552646, "timestamp": "2025-12-24T18:55:55.715139+00:00", "meta": {"OBJECT_NAME": "IONOSFERA-M 2", "OBJECT_ID": "2024-199B", "EPOCH": "2025-12-24T06:07:48.917856", "MEAN_MOTION": 14.22718682, "ECCENTRICITY": 0.00018503, "INCLINATION": 98.7395, "RA_OF_ASC_NODE": 227.9272, "ARG_OF_PERICENTER": 95.7299, "MEAN_ANOMALY": 264.409, "EPHEMERIS_TYPE": 0, "CLASSIFICATION_TYPE": "U", "NORAD_CAT_ID": 61736, "ELEMENT_SET_NO": 999, "REV_AT_EPOCH": 10595, "BSTAR": 4.498271e-05, "MEAN_MOTION_DOT": 5.7e-07, "MEAN_MOTION_DDOT": 0}, "tle": {"line1": "1 61736U 24199B   25358.25542729  .00000057  00000+0  44983-4 0  9990", "line2": "2 61736  98.7395 227.9272 0001850  95.7299 264.4090 14.22718682105958"}}, "geometry": {"type": "Point", "coordinates": [43.2887032871772, -30.349930221209828]}}, {"type": "Feature", "properties": {"norad_id": 63772, "name": "BIOMASS", "group": "resource", "lat": -3.7386115128146065, "lon": 3.091464839372317, "alt_km": 672.5642388318611, "timestamp": "2025-12-24T18:55:55.715150+00:00", "meta": {"OBJECT_NAME": "BIOMASS", "OBJECT_ID": "2025-090A", "EPOCH": "2025-12-24T06:38:36.136032", "MEAN_MOTION": 14.67534384, "ECCENTRICITY": 0.000113, "INCLINATION": 98.0698, "RA_OF_ASC_NODE": 183.1183, "ARG_OF_PERICENTER": 84.8453, "MEAN_ANOMALY": 275.2881, "EPHEMERIS_TYPE": 0, "CLASSIFICATION_TYPE": "U", "NORAD_CAT_ID": 63772, "ELEMENT_SET_NO": 999, "REV_AT_EPOCH": 3503, "BSTAR": 0.00022358344, "MEAN_MOTION_DOT": 1.22e-05, "MEAN_MOTION_DDOT": 0}, "tle": {"line1": "1 63772U 25090A   25358.27680713  .00001220  00000+0  22358-3 0  9995", "line2": "2 63772  98.0698 183.1183 0001130  84.8453 275.2881 14.67534384 35038"}}, "geometry": {"type": "Point", "coordinates": [3.091464839372317, -3.7386115128146065]}}, {"type": "Feature", "properties": {"norad_id": 64694, "name": "GOSAT-GW (IBUKI GW)", "group": "resource", "lat": 33.7896062611425, "lon": -71.34582113204867, "alt_km": 666.0525602245243, "timestamp": "2025-12-24T18:55:55.715160+00:00", "meta": {"OBJECT_NAME": "GOSAT-GW (IBUKI GW)", "OBJECT_ID": "2025-141A", "EPOCH": "2025-12-24T07:19:20.988192", "MEAN_MOTION": 14.67557236, "ECCENTRICITY": 0.00014297, "INCLINATION": 98.0436, "RA_OF_ASC_NODE": 293.6092, "ARG_OF_PERICENTER": 82.0867, "MEAN_ANOMALY": 278.05, "EPHEMERIS_TYPE": 0, "CLASSIFICATION_TYPE": "U", "NORAD_CAT_ID": 64694, "ELEMENT_SET_NO": 999, "REV_AT_EPOCH": 2619, "BSTAR": 0.00018535278, "MEAN_MOTION_DOT": 1.004e-05, "MEAN_MOTION_DDOT": 0}, "tle": {"line1": "1 64694U 25141A   25358.30510403  .00001004  00000+0  18535-3 0  9990", "line2": "2 64694  98.0436 293.6092 0001429  82.0867 278.0500 14.67557236 26195"}}, "geometry": {"type": "Point", "coordinates": [-71.34582113204867, 33.7896062611425]}}, {"type": "Feature", "properties": {"norad_id": 64876, "name": "IONOSFERA-M 3", "group": "resource", "lat": -19.370229081139087, "lon": 137.27223331701276, "alt_km": 826.8051187687797, "timestamp": "2025-12-24T18:55:55.715170+00:00", "meta": {"OBJECT_NAME": "IONOSFERA-M 3", "OBJECT_ID": "2025-155A", "EPOCH": "2025-12-24T07:51:37.397952", "MEAN_MOTION": 14.21443746, "ECCENTRICITY": 0.00018749, "INCLINATION": 98.5799, "RA_OF_ASC_NODE": 319.8665, "ARG_OF_PERICENTER": 41.197, "MEAN_ANOMALY": 318.9349, "EPHEMERIS_TYPE": 0, "CLASSIFICATION_TYPE": "U", "NORAD_CAT_ID": 64876, "ELEMENT_SET_NO": 999, "REV_AT_EPOCH": 2156, "BSTAR": 5.3658434e-05, "MEAN_MOTION_DOT": 7.5e-07, "MEAN_MOTION_DDOT": 0}, "tle": {"line1": "1 64876U 25155A   25358.32751618  .00000075  00000+0  53658-4 0  9997", "line2": "2 64876  98.5799 319.8665 0001874  41.1970 318.9349 14.21443746 21567"}}, "geometry": {"type": "Point", "coordinates": [137.27223331701276, -19.370229081139087]}}, {"type": "Feature", "properties": {"norad_id": 64877, "name": "IONOSFERA-M 4", "group": "resource", "lat": 19.833669622391024, "lon": -42.88731631223293, "alt_km": 819.6910742038899, "timestamp": "2025-12-24T18:55:55.715181+00:00", "meta": {"OBJECT_NAME": "IONOSFERA-M 4", "OBJECT_ID": "2025-155B", "EPOCH": "2025-12-24T07:00:44.581824", "MEAN_MOTION": 14.21444863, "ECCENTRICITY": 0.00013092, "INCLINATION": 98.58, "RA_OF_ASC_NODE": 319.7516, "ARG_OF_PERICENTER": 52.3837, "MEAN_ANOMALY": 307.746, "EPHEMERIS_TYPE": 0, "CLASSIFICATION_TYPE": "U", "NORAD_CAT_ID": 64877, "ELEMENT_SET_NO": 999, "REV_AT_EPOCH": 2155, "BSTAR": 5.2511984e-05, "MEAN_MOTION_DOT": 7.2e-07, "MEAN_MOTION_DDOT": 0}, "tle": {"line1": "1 64877U 25155B   25358.29218266  .00000072  00000+0  52512-4 0  9996", "line2": "2 64877  98.5800 319.7516 0001309  52.3837 307.7460 14.21444863 21554"}}, "geometry": {"type": "Point", "coordinates": [-42.88731631223293, 19.833669622391024]}}, {"type": "Feature", "properties": {"norad_id": 64899, "name": "MICROCARB", "group": "resource", "lat": -27.072246142421207, "lon": -110.18224637777624, "alt_km": 662.0713690611337, "timestamp": "2025-12-24T18:55:55.715191+00:00", "meta": {"OBJECT_NAME": "MICROCARB", "OBJECT_ID": "2025-156A", "EPOCH": "2025-12-24T04:56:40.665408", "MEAN_MOTION": 14.72075083, "ECCENTRICITY": 0.00176076, "INCLINATION": 98.0011, "RA_OF_ASC_NODE": 73.367, "ARG_OF_PERICENTER": 110.3867, "MEAN_ANOMALY": 249.9233, "EPHEMERIS_TYPE": 0, "CLASSIFICATION_TYPE": "U", "NORAD_CAT_ID": 64899, "ELEMENT_SET_NO": 999, "REV_AT_EPOCH": 2222, "BSTAR": 0.00012288483, "MEAN_MOTION_DOT": 7.25e-06, "MEAN_MOTION_DDOT": 0}, "tle": {"line1": "1 64899U 25156A   25358.20602622  .00000725  00000+0  12288-3 0  9995", "line2": "2 64899  98.0011  73.3670 0017607 110.3867 249.9233 14.72075083 22227"}}, "geometry": {"type": "Point", "coordinates": [-110.18224637777624, -27.072246142421207]}}, {"type": "Feature", "properties": {"norad_id": 64900, "name": "CO3D 3", "group": "resource", "lat": 6.868333142789037, "lon": -104.11561351183157, "alt_km": 507.4702176730534, "timestamp": "2025-12-24T18:55:55.715201+00:00", "meta": {"OBJECT_NAME": "CO3D 3", "OBJECT_ID": "2025-156B", "EPOCH": "2025-12-24T07:06:56.775744", "MEAN_MOTION": 15.20214899, "ECCENTRICITY": 0.00013181, "INCLINATION": 97.4337, "RA_OF_ASC_NODE": 74.498, "ARG_OF_PERICENTER": 75.2062, "MEAN_ANOMALY": 284.9319, "EPHEMERIS_TYPE": 0, "CLASSIFICATION_TYPE": "U", "NORAD_CAT_ID": 64900, "ELEMENT_SET_NO": 999, "REV_AT_EPOCH": 2296, "BSTAR": 0.00031957382, "MEAN_MOTION_DOT": 6.859e-05, "MEAN_MOTION_DDOT": 0}, "tle": {"line1": "1 64900U 25156B   25358.29649046  .00006859  00000+0  31957-3 0  9996", "line2": "2 64900  97.4337  74.4980 0001318  75.2062 284.9319 15.20214899 22967"}}, "geometry": {"type": "Point", "coordinates": [-104.11561351183157, 6.868333142789037]}}, {"type": "Feature", "properties": {"norad_id": 64901, "name": "CO3D 4", "group": "resource", "lat": 7.70313449270353, "lon": -104.00488431264259, "alt_km": 506.24522655136025, "timestamp": "2025-12-24T18:55:55.715211+00:00", "meta": {"OBJECT_NAME": "CO3D 4", "OBJECT_ID": "2025-156C", "EPOCH": "2025-12-24T07:07:09.848928", "MEAN_MOTION": 15.20217883, "ECCENTRICITY": 0.00014166, "INCLINATION": 97.4336, "RA_OF_ASC_NODE": 74.4981, "ARG_OF_PERICENTER": 159.4724, "MEAN_ANOMALY": 200.6569, "EPHEMERIS_TYPE": 0, "CLASSIFICATION_TYPE": "U", "NORAD_CAT_ID": 64901, "ELEMENT_SET_NO": 999, "REV_AT_EPOCH": 2296, "BSTAR": 0.00033993773, "MEAN_MOTION_DOT": 7.302e-05, "MEAN_MOTION_DDOT": 0}, "tle": {"line1": "1 64901U 25156C   25358.29664177  .00007302  00000+0  33994-3 0  9996", "line2": "2 64901  97.4336  74.4981 0001416 159.4724 200.6569 15.20217883 22965"}}, "geometry": {"type": "Point", "coordinates": [-104.00488431264259, 7.70313449270353]}}]}